OSCAR 7 (AO-7)          
1 07530U 74089B   18077.52966414 -.00000052  00000-0 -46002-4 0  9998
2 07530 101.6762  46.2492 0012218 149.1965 321.4973 12.53631576983239
UOSAT 2 (UO-11)         
1 14781U 84021B   18077.18256480  .00000086  00000-0  16849-4 0  9999
2 14781  97.6612 117.2230 0009118  30.8517 329.3231 14.82987609830955
LUSAT (LO-19)           
1 20442U 90005G   18076.87651836 -.00000006  00000-0  13758-4 0  9997
2 20442  98.6031  15.9678 0012816  62.2866 297.9617 14.32889312470750
ITAMSAT (IO-26)         
1 22826U 93061D   18076.88002528 -.00000000  00000-0  17550-4 0  9997
2 22826  98.8471  51.4383 0007961 239.7048 120.3346 14.30355408276455
RADIO ROSTO (RS-15)     
1 23439U 94085A   18077.53019706 -.00000041  00000-0  32737-4 0  9993
2 23439  64.8149 135.4539 0160354 198.3890 309.0605 11.27566599956501
JAS-2 (FO-29)           
1 24278U 96046B   18076.61199451  .00000004  00000-0  40959-4 0  9991
2 24278  98.5260 287.9400 0350208 348.6882  10.6531 13.53082070 65604
TECHSAT 1B (GO-32)      
1 25397U 98043D   18076.87568855 -.00000017  00000-0  11799-4 0  9994
2 25397  98.6419  18.8661 0000421 344.4907  15.6258 14.23641526 22738
ISS (ZARYA)             
1 25544U 98067A   18077.55644794  .00001918  00000-0  36217-4 0  9999
2 25544  51.6417 110.5274 0002027 208.9103 267.2569 15.54108842104426
PCSAT (NO-44)           
1 26931U 01043C   18077.04416374 -.00000024  00000-0  22590-4 0  9990
2 26931  67.0499 104.5867 0006532 283.0094  77.0278 14.30497322859515
SAUDISAT 1C (SO-50)     
1 27607U 02058C   18077.25169571  .00000053  00000-0  28369-4 0  9996
2 27607  64.5571   7.9873 0054631 349.6452  10.3520 14.75429376819544
CUTE-1 (CO-55)          
1 27844U 03031E   18077.54846644  .00000060  00000-0  46787-4 0  9998
2 27844  98.6894  87.5323 0008633 274.2964  85.7227 14.22100265763317
CUBESAT XI-IV (CO-57)   
1 27848U 03031J   18076.91959399  .00000037  00000-0  36913-4 0  9998
2 27848  98.6981  87.2792 0008571 287.7946  72.2296 14.21705807763066
MOZHAYETS 4 (RS-22)     
1 27939U 03042A   18077.51105537  .00000146  00000-0  34603-4 0  9990
2 27939  97.9746 219.0660 0014292  78.1064 355.8015 14.66665976773529
CUBESAT XI-V (CO-58)    
1 28895U 05043F   18076.93581992  .00000147  00000-0  37141-4 0  9994
2 28895  97.8946 232.1565 0016707   2.7962 357.3331 14.63519369660529
CUTE-1.7+APD II (CO-65) 
1 32785U 08021C   18076.86872226  .00000273  00000-0  35323-4 0  9991
2 32785  97.5519  93.3869 0012652 348.1361  11.9556 14.88077596535592
DELFI-C3 (DO-64)        
1 32789U 08021G   18076.88347361  .00001590  00000-0  11369-3 0  9990
2 32789  97.5238 133.9684 0011063 245.2136 114.7940 15.05827281538048
SEEDS II (CO-66)        
1 32791U 08021J   18077.10574743  .00000320  00000-0  38121-4 0  9991
2 32791  97.5429  98.7580 0012427 327.6819  32.3637 14.90490246535948
YUBILEINY (RS-30)       
1 32953U 08025A   18077.49438900  .00000001  00000-0 -65192-4 0  9996
2 32953  82.5000  69.0769 0020168  50.0311 310.2536 12.43082330445507
KKS-1 (KISEKI)          
1 33499U 09002H   18077.16111139  .00000152  00000-0  30559-4 0  9999
2 33499  98.3518 255.9864 0008448 216.0813 143.9825 14.75303997491754
SWISSCUBE               
1 35932U 09051B   18077.38980974  .00000160  00000-0  47087-4 0  9995
2 35932  98.5305 226.4383 0008742 125.3433 234.8582 14.56131470450221
BEESAT                  
1 35933U 09051C   18077.21745515  .00000129  00000-0  40018-4 0  9990
2 35933  98.5346 227.7510 0006768 135.7873 224.3866 14.56238549450305
ITUPSAT 1               
1 35935U 09051E   18076.87717881  .00000105  00000-0  35257-4 0  9991
2 35935  98.5456 227.6570 0009121 133.8871 226.3080 14.55418769450018
XIWANG-1 (HOPE-1)       
1 36122U 09072B   18077.18652044 -.00000057  00000-0 -39013-4 0  9999
2 36122 100.0819  96.0570 0007065 327.2133  32.8542 13.16343802396677
JUGNU                   
1 37839U 11058B   18077.50097712  .00000306  00000-0  21529-4 0  9991
2 37839  19.9606 227.1522 0019024 327.2817  81.4408 14.12612401332533
SRMSAT                  
1 37841U 11058D   18075.91330111  .00000313  00000-0  26877-4 0  9999
2 37841  19.9722 284.0819 0011825 196.9956 256.6585 14.10600748331745
M-CUBED & EXP-1 PRIME   
1 37855U 11061F   18077.55152108  .00002305  00000-0  12540-3 0  9992
2 37855 101.7249  93.7001 0177202 350.5119   9.2759 15.04175725348023
STRAND-1                
1 39090U 13009E   18077.18797215  .00000055  00000-0  34689-4 0  9991
2 39090  98.5307 284.7087 0008716 201.1541 158.9285 14.35015158264774
SOMP                    
1 39134U 13015E   18077.34742418  .00001900  00000-0  99746-4 0  9995
2 39134  64.8639  60.7019 0021496 222.2145 137.7328 15.18903516271102
BEESAT-3                
1 39135U 13015F   18077.08981921  .00001524  00000-0  87427-4 0  9996
2 39135  64.8682  73.7211 0026737 246.8176 113.0133 15.16463977270838
BEESAT-2                
1 39136U 13015G   18077.48957111  .00001479  00000-0  86316-4 0  9990
2 39136  64.8686  74.9771 0027413 246.1053 113.7199 15.15943218270846
ZACUBE-1 (TSHEPISOSAT)  
1 39417U 13066B   18077.16662174  .00000300  00000-0  44085-4 0  9994
2 39417  97.5974 110.6189 0060708  93.3655 267.4505 14.80891387233326
GOMX 1                  
1 39430U 13066Q   18077.50558067  .00000185  00000-0  43006-4 0  9995
2 39430  97.6897  60.9568 0150171 256.7144 101.7273 14.59039247229924
EAGLE 2                 
1 39436U 13066W   18076.91104185  .00133392  00000-0  13516-2 0  9991
2 39436  97.7138 205.9868 0004574 199.9573 160.1507 15.64812589238993
CUBEBUG-2 (LO-74)       
1 39440U 13066AA  18077.54925150  .00000260  00000-0  43068-4 0  9993
2 39440  97.6075  98.1446 0081795 129.2744 231.5759 14.75626493232553
FUNCUBE-1 (AO-73)       
1 39444U 13066AE  18076.66976193  .00000373  00000-0  52406-4 0  9993
2 39444  97.5986 111.5568 0059853  90.8153 269.9919 14.81658579232100
UWE-3                   
1 39446U 13066AG  18077.32106265  .00000267  00000-0  42075-4 0  9997
2 39446  97.6011 103.9794 0071753 111.7462 249.1407 14.78159974231693
SPROUT                  
1 39770U 14029E   18077.46928574  .00001061  00000-0  12540-3 0  9993
2 39770  97.8714 179.3081 0010129 139.8006 220.3963 14.86721001206882
UNISAT-6                
1 40012U 14033C   18077.10204125  .00000230  00000-0  41764-4 0  9997
2 40012  97.8221 316.6794 0059491 131.7381 228.8937 14.73777220201288
DUCHIFAT-1              
1 40021U 14033M   18076.81111043  .00000487  00000-0  56073-4 0  9993
2 40021  97.9174 355.3659 0014241 116.4963 243.7716 14.90225289203348
FUNCUBE-3 (EO-79)       
1 40025U 14033R   18077.20637672  .00000342  00000-0  42604-4 0  9997
2 40025  97.9081 352.7824 0013713 120.8737 239.3830 14.88655766203257
NUDT-PHONESAT           
1 40900U 15049B   18077.52538826  .00003039  00000-0  14024-3 0  9993
2 40900  97.4430  86.8396 0013248 354.5354   5.5735 15.20918835138132
ZDPS 2A                 
1 40901U 15049C   18077.51299456  .00001265  00000-0  67443-4 0  9999
2 40901  97.4603  85.2811 0013689   0.2871 359.8367 15.16915178137911
ZDPS 2B                 
1 40902U 15049D   18077.54053238  .00001189  00000-0  63971-4 0  9996
2 40902  97.4496  83.4815 0013673 357.3120   2.8037 15.16717396137902
XW-2A                   
1 40903U 15049E   18077.55240155  .00002824  00000-0  72427-4 0  9997
2 40903  97.3947 111.4723 0014312   4.7783 355.3597 15.40125646139853
KAITUO 1A               
1 40904U 15049F   18077.52836308  .00000711  00000-0  41602-4 0  9990
2 40904  97.4587  82.8114 0014983 359.3442 115.2795 15.14920051137771
2015-049G               
1 40905U 15049G   18077.53320945  .00000581  00000-0  35650-4 0  9998
2 40905  97.4584  81.0433 0015509 350.6140   9.4799 15.13887349137700
XW-2C                   
1 40906U 15049H   18077.50949545  .00000950  00000-0  54242-4 0  9997
2 40906  97.4603  82.6708 0014740 350.8017   9.2943 15.15061295137767
XW-2D                   
1 40907U 15049J   18077.53674613  .00001005  00000-0  56924-4 0  9993
2 40907  97.4576  82.4060 0014046 348.8798  11.2122 15.15202352137772
LILACSAT 2              
1 40908U 15049K   18077.50160222  .00000533  00000-0  33404-4 0  9990
2 40908  97.4686  81.8453 0015683 349.1165  10.9725 15.13433901137650
XW-2F                   
1 40910U 15049M   18077.55481602  .00001494  00000-0  80341-4 0  9995
2 40910  97.4582  83.5755 0014661 344.6466  15.4320 15.16330989137725
XW-2B                   
1 40911U 15049N   18077.55099756  .00000969  00000-0  55091-4 0  9991
2 40911  97.4613  82.9226 0013967 349.3960  10.6976 15.15149932137679
KAITUO 1B               
1 40912U 15049P   18077.55991001  .00001548  00000-0  78123-4 0  9991
2 40912  97.4517  86.1776 0014725 333.6592 143.4449 15.18523378137919
TIANWANG 1C (TW-1C)     
1 40926U 15051B   18077.40884747  .00009432  00000-0  18517-3 0  9991
2 40926  97.1942 120.2125 0008311 244.7525 245.8640 15.47499685139268
TIANWANG 1A (TW-1A)     
1 40928U 15051D   18077.41287751  .00004043  00000-0  10962-3 0  9995
2 40928  97.1958 113.1730 0010283 293.8735 190.9004 15.38155772138820
LAPAN-A2 (IO-86)        
1 40931U 15052B   18077.34570214  .00000683  00000-0  60414-5 0  9996
2 40931   6.0033  77.7963 0012941 164.0911 196.0435 14.76568467133558
E-ST@R-II               
1 41459U 16025D   18077.38085006  .00002311  00000-0  12404-3 0  9991
2 41459  98.1459 135.2180 0172905  92.8023 269.3030 15.04108101103771
AAUSAT 4                
1 41460U 16025E   18077.50897564  .00003591  00000-0  18856-3 0  9995
2 41460  98.1410 135.7215 0164565  89.0674 272.9453 15.05432787103845
NUSAT 1 (LO-87)         
1 41557U 16033B   18077.41417569  .00002035  00000-0  76857-4 0  9992
2 41557  97.4399 161.7937 0015401 116.1508 244.1317 15.28085973100294
BEESAT-4                
1 41619U 16040W   18076.74825472  .00002049  00000-0  93120-4 0  9997
2 41619  97.4256 141.1262 0011633 182.9365 177.1805 15.21831594 84180
ALSAT 1N                
1 41789U 16059G   18077.40761972  .00000090  00000-0  26333-4 0  9999
2 41789  98.1291 141.4242 0028913  16.3582 343.8552 14.64134304 78732
CAS-2T & KS-1Q          
1 41847U 16066G   18076.67557486  .00000134  00000-0  30397-4 0  9997
2 41847  98.7573 103.6125 0366501 156.2244 205.6357 14.37867842 71172
NAYIF-1 (EO-88)         
1 42017U 17008BX  18077.43898491  .00002363  00000-0  10011-3 0  9999
2 42017  97.4581 143.0063 0005961 354.3590   5.7579 15.24132826 60246
LILACSAT-1              
1 42725U 98067ME  18077.50543661  .00023138  00000-0  23491-3 0  9992
2 42725  51.6358  99.1654 0003364 263.6885  96.3727 15.65091863 46297
MAX VALIER SAT          
1 42778U 17036P   18077.14205721  .00001366  00000-0  64448-4 0  9996
2 42778  97.4146 138.3245 0013539  35.7405 324.4734 15.21097003 40663
FOX-1B (AO-91)          
1 43017U 17073E   18076.81806390  .00000555  00000-0  49525-4 0  9994
2 43017  97.7025  11.7985 0259469 208.7709 149.8984 14.77941457 17613
FOX-1D (AO-92)          
1 43137U 18004AC  18076.74897807  .00001526  00000-0  68899-4 0  9991
2 43137  97.5447 139.1578 0011045  65.3269 294.9116 15.22493396  9793
